{"type": "FeatureCollection", "features": [ {"type": "Feature", "properties": {"norad_id": 60453, "name": "LEGION 4", "group": "resource", "lat": -7.445581789454892, "lon": -96.64241063955109, "alt_km": 519.4052303366107, "timestamp": "2025-12-06T09:34:16.575865+00:00", "meta": {"OBJECT_NAME": "LEGION 4", "OBJECT_ID": "2024-146B", "EPOCH": "2025-12-05T23:14:35.539296", "MEAN_MOTION": 15.15716184, "ECCENTRICITY": 0.00099444, "INCLINATION": 45.0391, "RA_OF_ASC_NODE": 78.1598, "ARG_OF_PERICENTER": 275.6209, "MEAN_ANOMALY": 84.3536, "EPHEMERIS_TYPE": 0, "CLASSIFICATION_TYPE": "U", "NORAD_CAT_ID": 60453, "ELEMENT_SET_NO": 999, "REV_AT_EPOCH": 7155, "BSTAR": 0.0004601924, "MEAN_MOTION_DOT": 8.672e-05, "MEAN_MOTION_DDOT": 0}, "tle": {"line1": "1 60453U 24146B   25339.96846689  .00008672  00000+0  46019-3 0  9998", "line2": "2 60453  45.0391  78.1598 0009944 275.6209  84.3536 15.15716184 71553"}}, "geometry": {"type": "Point", "coordinates": [-96.64241063955109, -7.445581789454892]}}, {"type": "Feature", "properties": {"norad_id": 60989, "name": "SENTINEL-2C", "group": "resource", "lat": 58.42571137748788, "lon": -112.82673299458028, "alt_km": 782.6247075929887, "timestamp": "2025-12-06T09:34:16.575875+00:00", "meta": {"OBJECT_NAME": "SENTINEL-2C", "OBJECT_ID": "2024-157A", "EPOCH": "2025-12-05T22:56:25.455552", "MEAN_MOTION": 14.30814755, "ECCENTRICITY": 0.00010424, "INCLINATION": 98.5686, "RA_OF_ASC_NODE": 52.5358, "ARG_OF_PERICENTER": 105.3336, "MEAN_ANOMALY": 254.7962, "EPHEMERIS_TYPE": 0, "CLASSIFICATION_TYPE": "U", "NORAD_CAT_ID": 60989, "ELEMENT_SET_NO": 999, "REV_AT_EPOCH": 6535, "BSTAR": 0.0001353455, "MEAN_MOTION_DOT": 3.11e-06, "MEAN_MOTION_DDOT": 0}, "tle": {"line1": "1 60989U 24157A   25339.95585018  .00000311  00000+0  13535-3 0  9998", "line2": "2 60989  98.5686  52.5358 0001042 105.3336 254.7962 14.30814755 65354"}}, "geometry": {"type": "Point", "coordinates": [-112.82673299458028, 58.42571137748788]}}, {"type": "Feature", "properties": {"norad_id": 61735, "name": "IONOSFERA-M 1", "group": "resource", "lat": -31.13701039006306, "lon": 24.96187280046684, "alt_km": 823.0844659420363, "timestamp": "2025-12-06T09:34:16.575885+00:00", "meta": {"OBJECT_NAME": "IONOSFERA-M 1", "OBJECT_ID": "2024-199A", "EPOCH": "2025-12-05T22:27:11.824128", "MEAN_MOTION": 14.22711629, "ECCENTRICITY": 0.00012774, "INCLINATION": 98.7415, "RA_OF_ASC_NODE": 209.8357, "ARG_OF_PERICENTER": 31.4566, "MEAN_ANOMALY": 328.6688, "EPHEMERIS_TYPE": 0, "CLASSIFICATION_TYPE": "U", "NORAD_CAT_ID": 61735, "ELEMENT_SET_NO": 999, "REV_AT_EPOCH": 10022, "BSTAR": 8.6200172e-05, "MEAN_MOTION_DOT": 1.49e-06, "MEAN_MOTION_DDOT": 0}, "tle": {"line1": "1 61735U 24199A   25339.93555352  .00000149  00000+0  86200-4 0  9999", "line2": "2 61735  98.7415 209.8357 0001277  31.4566 328.6688 14.22711629100225"}}, "geometry": {"type": "Point", "coordinates": [24.96187280046684, -31.13701039006306]}}, {"type": "Feature", "properties": {"norad_id": 61736, "name": "IONOSFERA-M 2", "group": "resource", "lat": 33.49880651670642, "lon": -155.63638224011328, "alt_km": 813.9257682307061, "timestamp": "2025-12-06T09:34:16.575895+00:00", "meta": {"OBJECT_NAME": "IONOSFERA-M 2", "OBJECT_ID": "2024-199B", "EPOCH": "2025-12-05T21:35:49.702848", "MEAN_MOTION": 14.22713855, "ECCENTRICITY": 0.00014584, "INCLINATION": 98.7406, "RA_OF_ASC_NODE": 209.7129, "ARG_OF_PERICENTER": 118.8961, "MEAN_ANOMALY": 241.2364, "EPHEMERIS_TYPE": 0, "CLASSIFICATION_TYPE": "U", "NORAD_CAT_ID": 61736, "ELEMENT_SET_NO": 999, "REV_AT_EPOCH": 10334, "BSTAR": 9.1188376e-05, "MEAN_MOTION_DOT": 1.6e-06, "MEAN_MOTION_DDOT": 0}, "tle": {"line1": "1 61736U 24199B   25339.89988082  .00000160  00000+0  91188-4 0  9999", "line2": "2 61736  98.7406 209.7129 0001458 118.8961 241.2364 14.22713855103342"}}, "geometry": {"type": "Point", "coordinates": [-155.63638224011328, 33.49880651670642]}}, {"type": "Feature", "properties": {"norad_id": 63772, "name": "BIOMASS", "group": "resource", "lat": -73.13757987466028, "lon": -166.58420462195124, "alt_km": 677.0380009433484, "timestamp": "2025-12-06T09:34:16.575905+00:00", "meta": {"OBJECT_NAME": "BIOMASS", "OBJECT_ID": "2025-090A", "EPOCH": "2025-12-05T22:27:30.909024", "MEAN_MOTION": 14.67528512, "ECCENTRICITY": 0.00012547, "INCLINATION": 98.0713, "RA_OF_ASC_NODE": 165.0443, "ARG_OF_PERICENTER": 75.1109, "MEAN_ANOMALY": 285.0235, "EPHEMERIS_TYPE": 0, "CLASSIFICATION_TYPE": "U", "NORAD_CAT_ID": 63772, "ELEMENT_SET_NO": 999, "REV_AT_EPOCH": 3234, "BSTAR": -0.00048597845, "MEAN_MOTION_DOT": -2.802e-05, "MEAN_MOTION_DDOT": 0}, "tle": {"line1": "1 63772U 25090A   25339.93577441 -.00002802  00000+0 -48598-3 0  9993", "line2": "2 63772  98.0713 165.0443 0001254  75.1109 285.0235 14.67528512 32341"}}, "geometry": {"type": "Point", "coordinates": [-166.58420462195124, -73.13757987466028]}}, {"type": "Feature", "properties": {"norad_id": 64694, "name": "GOSAT-GW (IBUKI GW)", "group": "resource", "lat": 45.41462464155681, "lon": 104.27373082594151, "alt_km": 664.269957186074, "timestamp": "2025-12-06T09:34:16.575916+00:00", "meta": {"OBJECT_NAME": "GOSAT-GW (IBUKI GW)", "OBJECT_ID": "2025-141A", "EPOCH": "2025-12-05T23:08:42.709344", "MEAN_MOTION": 14.67572391, "ECCENTRICITY": 0.00014336, "INCLINATION": 98.042, "RA_OF_ASC_NODE": 275.6001, "ARG_OF_PERICENTER": 84.7935, "MEAN_ANOMALY": 275.3433, "EPHEMERIS_TYPE": 0, "CLASSIFICATION_TYPE": "U", "NORAD_CAT_ID": 64694, "ELEMENT_SET_NO": 999, "REV_AT_EPOCH": 2350, "BSTAR": 0.00038181618, "MEAN_MOTION_DOT": 2.12e-05, "MEAN_MOTION_DDOT": 0}, "tle": {"line1": "1 64694U 25141A   25339.96438321  .00002120  00000+0  38182-3 0  9999", "line2": "2 64694  98.0420 275.6001 0001433  84.7935 275.3433 14.67572391 23504"}}, "geometry": {"type": "Point", "coordinates": [104.27373082594151, 45.41462464155681]}}, {"type": "Feature", "properties": {"norad_id": 64876, "name": "IONOSFERA-M 3", "group": "resource", "lat": 70.54888368234516, "lon": 147.74520386470897, "alt_km": 812.3029350155957, "timestamp": "2025-12-06T09:34:16.575926+00:00", "meta": {"OBJECT_NAME": "IONOSFERA-M 3", "OBJECT_ID": "2025-155A", "EPOCH": "2025-12-05T22:55:52.604544", "MEAN_MOTION": 14.21438415, "ECCENTRICITY": 0.00023623, "INCLINATION": 98.5774, "RA_OF_ASC_NODE": 302.0139, "ARG_OF_PERICENTER": 70.7312, "MEAN_ANOMALY": 289.4122, "EPHEMERIS_TYPE": 0, "CLASSIFICATION_TYPE": "U", "NORAD_CAT_ID": 64876, "ELEMENT_SET_NO": 999, "REV_AT_EPOCH": 1895, "BSTAR": 9.4647993e-05, "MEAN_MOTION_DOT": 1.64e-06, "MEAN_MOTION_DDOT": 0}, "tle": {"line1": "1 64876U 25155A   25339.95546996  .00000164  00000+0  94648-4 0  9999", "line2": "2 64876  98.5774 302.0139 0002362  70.7312 289.4122 14.21438415 18958"}}, "geometry": {"type": "Point", "coordinates": [147.74520386470897, 70.54888368234516]}}, {"type": "Feature", "properties": {"norad_id": 64877, "name": "IONOSFERA-M 4", "group": "resource", "lat": -70.07379131552887, "lon": -33.032254779447605, "alt_km": 828.7066005931401, "timestamp": "2025-12-06T09:34:16.575936+00:00", "meta": {"OBJECT_NAME": "IONOSFERA-M 4", "OBJECT_ID": "2025-155B", "EPOCH": "2025-12-05T22:05:00.956544", "MEAN_MOTION": 14.21439471, "ECCENTRICITY": 0.00017191, "INCLINATION": 98.5773, "RA_OF_ASC_NODE": 301.8993, "ARG_OF_PERICENTER": 70.4095, "MEAN_ANOMALY": 289.7268, "EPHEMERIS_TYPE": 0, "CLASSIFICATION_TYPE": "U", "NORAD_CAT_ID": 64877, "ELEMENT_SET_NO": 999, "REV_AT_EPOCH": 1894, "BSTAR": 0.00010277922, "MEAN_MOTION_DOT": 1.82e-06, "MEAN_MOTION_DDOT": 0}, "tle": {"line1": "1 64877U 25155B   25339.92014996  .00000182  00000+0  10278-3 0  9993", "line2": "2 64877  98.5773 301.8993 0001719  70.4095 289.7268 14.21439471 18949"}}, "geometry": {"type": "Point", "coordinates": [-33.032254779447605, -70.07379131552887]}}, {"type": "Feature", "properties": {"norad_id": 64899, "name": "MICROCARB", "group": "resource", "lat": 9.013095870930782, "lon": 54.567003907560256, "alt_km": 666.9543070395848, "timestamp": "2025-12-06T09:34:16.575947+00:00", "meta": {"OBJECT_NAME": "MICROCARB", "OBJECT_ID": "2025-156A", "EPOCH": "2025-12-05T18:50:51.063072", "MEAN_MOTION": 14.72039528, "ECCENTRICITY": 0.00166672, "INCLINATION": 98.0031, "RA_OF_ASC_NODE": 55.2421, "ARG_OF_PERICENTER": 166.3495, "MEAN_ANOMALY": 193.8167, "EPHEMERIS_TYPE": 0, "CLASSIFICATION_TYPE": "U", "NORAD_CAT_ID": 64899, "ELEMENT_SET_NO": 999, "REV_AT_EPOCH": 1951, "BSTAR": 0.00023859326, "MEAN_MOTION_DOT": 1.452e-05, "MEAN_MOTION_DDOT": 0}, "tle": {"line1": "1 64899U 25156A   25339.78531323  .00001452  00000+0  23859-3 0  9990", "line2": "2 64899  98.0031  55.2421 0016667 166.3495 193.8167 14.72039528 19510"}}, "geometry": {"type": "Point", "coordinates": [54.567003907560256, 9.013095870930782]}}, {"type": "Feature", "properties": {"norad_id": 64900, "name": "CO3D 3", "group": "resource", "lat": 33.10948916302751, "lon": 51.972283859079795, "alt_km": 503.0954407967665, "timestamp": "2025-12-06T09:34:16.575957+00:00", "meta": {"OBJECT_NAME": "CO3D 3", "OBJECT_ID": "2025-156B", "EPOCH": "2025-12-05T22:21:59.525280", "MEAN_MOTION": 15.20205959, "ECCENTRICITY": 0.00013743, "INCLINATION": 97.4349, "RA_OF_ASC_NODE": 56.3973, "ARG_OF_PERICENTER": 116.2508, "MEAN_ANOMALY": 243.8869, "EPHEMERIS_TYPE": 0, "CLASSIFICATION_TYPE": "U", "NORAD_CAT_ID": 64900, "ELEMENT_SET_NO": 999, "REV_AT_EPOCH": 2017, "BSTAR": 0.00045549663, "MEAN_MOTION_DOT": 9.807e-05, "MEAN_MOTION_DDOT": 0}, "tle": {"line1": "1 64900U 25156B   25339.93193895  .00009807  00000+0  45550-3 0  9992", "line2": "2 64900  97.4349  56.3973 0001374 116.2508 243.8869 15.20205959 20176"}}, "geometry": {"type": "Point", "coordinates": [51.972283859079795, 33.10948916302751]}}]}